{
  "type": "FeatureCollection",
  "features": [
    {
      "type": "Feature",
      "properties": {
        "norad_id": 43262,
        "name": "GAOFEN-1 04",
        "group": "resource",
        "lat": -67.00990827944561,
        "lon": 73.01363719328772,
        "alt_km": 648.1423952090518,
        "timestamp": "2025-12-21T14:40:47.568363+00:00",
        "meta_object_name": "GAOFEN-1 04",
        "meta_object_id": "2018-031D",
        "meta_epoch": "2025-12-21T06:51:23.791392",
        "meta_mean_motion": 14.76422826,
        "meta_eccentricity": 6.912e-05,
        "meta_inclination": 98.0801,
        "meta_ra_of_asc_node": 53.1249,
        "meta_arg_of_pericenter": 54.9311,
        "meta_mean_anomaly": 305.1963,
        "meta_ephemeris_type": 0,
        "meta_classification_type": "U",
        "meta_norad_cat_id": 43262,
        "meta_element_set_no": 999,
        "meta_rev_at_epoch": 41643,
        "meta_bstar": 0.00011410275,
        "meta_mean_motion_dot": 7.41e-06,
        "meta_mean_motion_ddot": 0,
        "tle_line1": "1 43262U 18031D   25355.28569203  .00000741  00000+0  11410-3 0  9996",
        "tle_line2": "2 43262  98.0801  53.1249 0000691  54.9311 305.1963 14.76422826416435"
      },
      "geometry": {
        "type": "Point",
        "coordinates": [
          73.01363719328772,
          -67.00990827944561
        ]
      }
    },
    {
      "type": "Feature",
      "properties": {
        "norad_id": 43437,
        "name": "SENTINEL-3B",
        "group": "resource",
        "lat": -46.26328600854694,
        "lon": 69.79715272457703,
        "alt_km": 810.2770227838064,
        "timestamp": "2025-12-21T14:40:47.568373+00:00",
        "meta_object_name": "SENTINEL-3B",
        "meta_object_id": "2018-039A",
        "meta_epoch": "2025-12-21T03:07:03.946656",
        "meta_mean_motion": 14.26736979,
        "meta_eccentricity": 0.00016313,
        "meta_inclination": 98.6257,
        "meta_ra_of_asc_node": 60.1946,
        "meta_arg_of_pericenter": 93.5044,
        "meta_mean_anomaly": 266.6323,
        "meta_ephemeris_type": 0,
        "meta_classification_type": "U",
        "meta_norad_cat_id": 43437,
        "meta_element_set_no": 999,
        "meta_rev_at_epoch": 39873,
        "meta_bstar": 6.0794922e-05,
        "meta_mean_motion_dot": 1.03e-06,
        "meta_mean_motion_ddot": 0,
        "tle_line1": "1 43437U 18039A   25355.12990679  .00000103  00000+0  60795-4 0  9999",
        "tle_line2": "2 43437  98.6257  60.1946 0001631  93.5044 266.6323 14.26736979398734"
      },
      "geometry": {
        "type": "Point",
        "coordinates": [
          69.79715272457703,
          -46.26328600854694
        ]
      }
    },
    {
      "type": "Feature",
      "properties": {
        "norad_id": 43461,
        "name": "GAOFEN-5 01",
        "group": "resource",
        "lat": -62.51174362072237,
        "lon": -24.6976339719265,
        "alt_km": 698.640615240296,
        "timestamp": "2025-12-21T14:40:47.568383+00:00",
        "meta_object_name": "GAOFEN-5 01",
        "meta_object_id": "2018-043A",
        "meta_epoch": "2025-12-21T03:27:39.430368",
        "meta_mean_motion": 14.60418022,
        "meta_eccentricity": 5.158e-05,
        "meta_inclination": 98.4338,
        "meta_ra_of_asc_node": 318.2586,
        "meta_arg_of_pericenter": 283.9485,
        "meta_mean_anomaly": 76.1657,
        "meta_ephemeris_type": 0,
        "meta_classification_type": "U",
        "meta_norad_cat_id": 43461,
        "meta_element_set_no": 999,
        "meta_rev_at_epoch": 40570,
        "meta_bstar": 7.4417752e-05,
        "meta_mean_motion_dot": 3.12e-06,
        "meta_mean_motion_ddot": 0,
        "tle_line1": "1 43461U 18043A   25355.14420637  .00000312  00000+0  74418-4 0  9994",
        "tle_line2": "2 43461  98.4338 318.2586 0000515 283.9485  76.1657 14.60418022405704"
      },
      "geometry": {
        "type": "Point",
        "coordinates": [
          -24.6976339719265,
          -62.51174362072237
        ]
      }
    },
    {
      "type": "Feature",
      "properties": {
        "norad_id": 43484,
        "name": "GAOFEN-6",
        "group": "resource",
        "lat": 81.56765882592173,
        "lon": -8.084722952198813,
        "alt_km": 626.8436197852607,
        "timestamp": "2025-12-21T14:40:47.568393+00:00",
        "meta_object_name": "GAOFEN-6",
        "meta_object_id": "2018-048A",
        "meta_epoch": "2025-12-21T06:09:26.319168",
        "meta_mean_motion": 14.76578826,
        "meta_eccentricity": 0.00128022,
        "meta_inclination": 97.8027,
        "meta_ra_of_asc_node": 59.2377,
        "meta_arg_of_pericenter": 38.5462,
        "meta_mean_anomaly": 321.666,
        "meta_ephemeris_type": 0,
        "meta_classification_type": "U",
        "meta_norad_cat_id": 43484,
        "meta_element_set_no": 999,
        "meta_rev_at_epoch": 40713,
        "meta_bstar": 3.2434875e-05,
        "meta_mean_motion_dot": 1.77e-06,
        "meta_mean_motion_ddot": 0,
        "tle_line1": "1 43484U 18048A   25355.25655462  .00000177  00000+0  32435-4 0  9994",
        "tle_line2": "2 43484  97.8027  59.2377 0012802  38.5462 321.6660 14.76578826407135"
      },
      "geometry": {
        "type": "Point",
        "coordinates": [
          -8.084722952198813,
          81.56765882592173
        ]
      }
    },
    {
      "type": "Feature",
      "properties": {
        "norad_id": 43585,
        "name": "GAOFEN-11 01",
        "group": "resource",
        "lat": 52.892210806376646,
        "lon": 48.91432481207438,
        "alt_km": 415.629473942764,
        "timestamp": "2025-12-21T14:40:47.568403+00:00",
        "meta_object_name": "GAOFEN-11 01",
        "meta_object_id": "2018-063A",
        "meta_epoch": "2025-12-21T06:41:59.754048",
        "meta_mean_motion": 15.49443606,
        "meta_eccentricity": 0.00038771,
        "meta_inclination": 97.1553,
        "meta_ra_of_asc_node": 58.1434,
        "meta_arg_of_pericenter": 268.7048,
        "meta_mean_anomaly": 91.3759,
        "meta_ephemeris_type": 0,
        "meta_classification_type": "U",
        "meta_norad_cat_id": 43585,
        "meta_element_set_no": 999,
        "meta_rev_at_epoch": 41274,
        "meta_bstar": 0.00023160515,
        "meta_mean_motion_dot": 0.00012644,
        "meta_mean_motion_ddot": 0,
        "tle_line1": "1 43585U 18063A   25355.27916382  .00012644  00000+0  23161-3 0  9993",
        "tle_line2": "2 43585  97.1553  58.1434 0003877 268.7048  91.3759 15.49443606412746"
      },
      "geometry": {
        "type": "Point",
        "coordinates": [
          48.91432481207438,
          52.892210806376646
        ]
      }
    },
    {
      "type": "Feature",
      "properties": {
        "norad_id": 43613,
        "name": "ICESAT-2",
        "group": "resource",
        "lat": -15.56861777182907,
        "lon": 62.5723535972297,
        "alt_km": 485.54005417419467,
        "timestamp": "2025-12-21T14:40:47.568413+00:00",
        "meta_object_name": "ICESAT-2",
        "meta_object_id": "2018-070A",
        "meta_epoch": "2025-12-21T05:58:11.534304",
        "meta_mean_motion": 15.28246235,
        "meta_eccentricity": 0.00029307,
        "meta_inclination": 92.0046,
        "meta_ra_of_asc_node": 243.0336,
        "meta_arg_of_pericenter": 120.3917,
        "meta_mean_anomaly": 239.7622,
        "meta_ephemeris_type": 0,
        "meta_classification_type": "U",
        "meta_norad_cat_id": 43613,
        "meta_element_set_no": 999,
        "meta_rev_at_epoch": 40528,
        "meta_bstar": 0.00034876926,
        "meta_mean_motion_dot": 9.597e-05,
        "meta_mean_motion_ddot": 0,
        "tle_line1": "1 43613U 18070A   25355.24874461  .00009597  00000+0  34877-3 0  9990",
        "tle_line2": "2 43613  92.0046 243.0336 0002930 120.3917 239.7622 15.28246235405286"
      },
      "geometry": {
        "type": "Point",
        "coordinates": [
          62.5723535972297,
          -15.56861777182907
        ]
      }
    },
    {
      "type": "Feature",
      "properties": {
        "norad_id": 43719,
        "name": "HYSIS",
        "group": "resource",
        "lat": -8.66368168921473,
        "lon": -122.68290808874613,
        "alt_km": 638.1180314501771,
        "timestamp": "2025-12-21T14:40:47.568423+00:00",
        "meta_object_name": "HYSIS",
        "meta_object_id": "2018-096A",
        "meta_epoch": "2025-12-21T05:42:33.118848",
        "meta_mean_motion": 14.78666256,
        "meta_eccentricity": 0.00010022,
        "meta_inclination": 98.0093,
        "meta_ra_of_asc_node": 58.1745,
        "meta_arg_of_pericenter": 53.2735,
        "meta_mean_anomaly": 306.8568,
        "meta_ephemeris_type": 0,
        "meta_classification_type": "U",
        "meta_norad_cat_id": 43719,
        "meta_element_set_no": 999,
        "meta_rev_at_epoch": 38112,
        "meta_bstar": 0.00010511991,
        "meta_mean_motion_dot": 7.18e-06,
        "meta_mean_motion_ddot": 0,
        "tle_line1": "1 43719U 18096A   25355.23788332  .00000718  00000+0  10512-3 0  9991",
        "tle_line2": "2 43719  98.0093  58.1745 0001002  53.2735 306.8568 14.78666256381125"
      },
      "geometry": {
        "type": "Point",
        "coordinates": [
          -122.68290808874613,
          -8.66368168921473
        ]
      }
    }
  ]
}